{
  "type": "FeatureCollection",
  "features": [
    {
      "type": "Feature",
      "properties": {
        "norad_id": 64903,
        "name": "CO3D 1",
        "group": "resource",
        "lat": 14.631623105351728,
        "lon": 66.05424911057476,
        "alt_km": 505.966033988665,
        "timestamp": "2025-12-17T19:34:07.702871+00:00",
        "meta_object_name": "CO3D 1",
        "meta_object_id": "2025-156E",
        "meta_epoch": "2025-12-17T03:42:23.819040",
        "meta_mean_motion": 15.20201563,
        "meta_eccentricity": 8.881e-05,
        "meta_inclination": 97.4338,
        "meta_ra_of_asc_node": 67.3563,
        "meta_arg_of_pericenter": 82.1437,
        "meta_mean_anomaly": 277.9899,
        "meta_ephemeris_type": 0,
        "meta_classification_type": "U",
        "meta_norad_cat_id": 64903,
        "meta_element_set_no": 999,
        "meta_rev_at_epoch": 2187,
        "meta_bstar": 3.9514104e-05,
        "meta_mean_motion_dot": 7.88e-06,
        "meta_mean_motion_ddot": 0,
        "tle_line1": "1 64903U 25156E   25351.15444235  .00000788  00000+0  39514-4 0  9993",
        "tle_line2": "2 64903  97.4338  67.3563 0000888  82.1437 277.9899 15.20201563 21871"
      },
      "geometry": {
        "type": "Point",
        "coordinates": [
          66.05424911057476,
          14.631623105351728
        ]
      }
    },
    {
      "type": "Feature",
      "properties": {
        "norad_id": 66514,
        "name": "SENTINEL-6B",
        "group": "resource",
        "lat": 60.342264984361464,
        "lon": -79.45938679695345,
        "alt_km": 1334.4592404506848,
        "timestamp": "2025-12-17T19:34:07.702882+00:00",
        "meta_object_name": "SENTINEL-6B",
        "meta_object_id": "2025-264A",
        "meta_epoch": "2025-12-12T06:01:21.430272",
        "meta_mean_motion": 12.81479576,
        "meta_eccentricity": 0.0007847,
        "meta_inclination": 66.0385,
        "meta_ra_of_asc_node": 163.4531,
        "meta_arg_of_pericenter": 270.1745,
        "meta_mean_anomaly": 89.8371,
        "meta_ephemeris_type": 0,
        "meta_classification_type": "U",
        "meta_norad_cat_id": 66514,
        "meta_element_set_no": 999,
        "meta_rev_at_epoch": 322,
        "meta_bstar": 0.00018864317,
        "meta_mean_motion_dot": -1.7e-07,
        "meta_mean_motion_ddot": 0,
        "tle_line1": "1 66514U 25264A   25346.25094248 -.00000017  00000+0  18864-3 0  9993",
        "tle_line2": "2 66514  66.0385 163.4531 0007847 270.1745  89.8371 12.81479576  3220"
      },
      "geometry": {
        "type": "Point",
        "coordinates": [
          -79.45938679695345,
          60.342264984361464
        ]
      }
    }
  ]
}